IRIDIUM 26              
1 24903U 97043A   25231.68460807  .00000310  00000+0  97718-4 0  9992
2 24903  86.3904  83.9358 0001959  91.0291 269.1131 14.37184495465860
IRIDIUM 22              
1 24907U 97043E   25231.66700192  .00000279  00000+0  89391-4 0  9990
2 24907  86.3912  87.5401 0002141  90.4048 269.7394 14.35992815465889
DUMMY MASS 1            
1 24925U 97048A   25231.74059495  .00000319  00000+0  32475-4 0  9993
2 24925  86.3325 105.9461 0004312 287.9867  72.0888 14.87029959514573
DUMMY MASS 2            
1 24926U 97048B   25231.71333348  .00000322  00000+0  33040-4 0  9996
2 24926  86.3328 107.5787 0005293 303.8254  56.2466 14.86781813514347
IRIDIUM 29              
1 24944U 97051A   25231.73689879  .00000316  00000+0  10099-3 0  9996
2 24944  86.3956 117.2508 0002360  84.7707 275.3759 14.36511169462399
IRIDIUM 33              
1 24946U 97051C   25231.71887239  .00000221  00000+0  70714-4 0  9992
2 24946  86.3870 116.5239 0006217 219.9290 140.1450 14.34925604461851
IRIDIUM 28              
1 24948U 97051E   25231.73986610  .00000254  00000+0  78526-4 0  9994
2 24948  86.3956 114.7282 0001726  94.9549 265.1846 14.37422363462972
IRIDIUM 36              
1 24967U 97056C   25231.83244812  .00000272  00000+0  84101-4 0  9998
2 24967  86.4020 146.2878 0002210  92.3265 267.8186 14.37650167461366
